start=new Date('2023-04-05T00:00:00.000Z').valueOf();
sats=[{"SEMIMAJOR_AXIS":"6941.144","MEAN_MOTION_DDOT":"0.0000000000000","ECCENTRICITY":"0.00020080","EPOCH":"2023-04-04T18:36:31.311360","CENTER_NAME":"EARTH","NORAD_CAT_ID":"53216","OBJECT_ID":"2022-084AD","LAUNCH_DATE":"2022-07-22","RCS_SIZE":"LARGE","REF_FRAME":"TEME","PERIOD":"95.919","TLE_LINE1":"1 53216U 22084AD  23094.77536240  .00000162  00000-0  17187-4 0  9992","COUNTRY_CODE":"US","SITE":"AFWTR","OBJECT_TYPE":"PAYLOAD","ELEMENT_SET_NO":"999","TLE_LINE2":"2 53216  97.6542 156.9035 0002008 105.4533 254.6913 15.01260954 39175","MEAN_ELEMENT_THEORY":"SGP4","CLASSIFICATION_TYPE":"U","INCLINATION":"97.6542","GP_ID":"229471688","TIME_SYSTEM":"UTC","BSTAR":"0.00001718700000","DECAY_DATE":null,"EPHEMERIS_TYPE":"0","REV_AT_EPOCH":"3917","MEAN_MOTION":"15.01260954","APOAPSIS":"564.403","OBJECT_NAME":"STARLINK-4376","PERIAPSIS":"561.615","MEAN_MOTION_DOT":"0.00000162","RA_OF_ASC_NODE":"156.9035","MEAN_ANOMALY":"254.6913","ARG_OF_PERICENTER":"105.4533","FILE":"3880102"},{"RA_OF_ASC_NODE":"156.8870","MEAN_MOTION_DOT":"0.00001514","FILE":"3880105","ARG_OF_PERICENTER":"104.1803","MEAN_ANOMALY":"255.9631","MEAN_MOTION":"15.01265983","OBJECT_NAME":"STARLINK-4379","PERIAPSIS":"561.686","APOAPSIS":"564.301","DECAY_DATE":null,"REV_AT_EPOCH":"3917","EPHEMERIS_TYPE":"0","INCLINATION":"97.6528","CLASSIFICATION_TYPE":"U","MEAN_ELEMENT_THEORY":"SGP4","TLE_LINE2":"2 53217  97.6528 156.8870 0001884 104.1803 255.9631 15.01265983 39171","BSTAR":"0.00012239000000","GP_ID":"229471712","TIME_SYSTEM":"UTC","COUNTRY_CODE":"US","ELEMENT_SET_NO":"999","OBJECT_TYPE":"PAYLOAD","SITE":"AFWTR","REF_FRAME":"TEME","RCS_SIZE":"LARGE","LAUNCH_DATE":"2022-07-22","TLE_LINE1":"1 53217U 22084AE  23094.76634955  .00001514  00000-0  12239-3 0  9998","PERIOD":"95.919","OBJECT_ID":"2022-084AE","CENTER_NAME":"EARTH","EPOCH":"2023-04-04T18:23:32.601120","ECCENTRICITY":"0.00018840","MEAN_MOTION_DDOT":"0.0000000000000","SEMIMAJOR_AXIS":"6941.128","NORAD_CAT_ID":"53217"},{"ARG_OF_PERICENTER":"67.1618","MEAN_ANOMALY":"292.9772","FILE":"3880105","MEAN_MOTION_DOT":"0.00001276","RA_OF_ASC_NODE":"156.9047","APOAPSIS":"564.106","PERIAPSIS":"561.928","OBJECT_NAME":"STARLINK-4384","MEAN_MOTION":"15.01258235","EPHEMERIS_TYPE":"0","REV_AT_EPOCH":"3880","DECAY_DATE":null,"GP_ID":"229471703","TIME_SYSTEM":"UTC","BSTAR":"0.00010393000000","TLE_LINE2":"2 53218  97.6561 156.9047 0001569  67.1618 292.9772 15.01258235 38806","MEAN_ELEMENT_THEORY":"SGP4","CLASSIFICATION_TYPE":"U","INCLINATION":"97.6561","SITE":"AFWTR","OBJECT_TYPE":"PAYLOAD","ELEMENT_SET_NO":"999","COUNTRY_CODE":"US","PERIOD":"95.920","TLE_LINE1":"1 53218U 22084AF  23094.77351419  .00001276  00000-0  10393-3 0  9995","LAUNCH_DATE":"2022-07-22","RCS_SIZE":"LARGE","REF_FRAME":"TEME","OBJECT_ID":"2022-084AF","NORAD_CAT_ID":"53218","SEMIMAJOR_AXIS":"6941.152","MEAN_MOTION_DDOT":"0.0000000000000","ECCENTRICITY":"0.00015690","CENTER_NAME":"EARTH","EPOCH":"2023-04-04T18:33:51.626016"},{"CENTER_NAME":"EARTH","EPOCH":"2023-04-04T03:54:02.488320","ECCENTRICITY":"0.00015130","MEAN_MOTION_DDOT":"0.0000000000000","SEMIMAJOR_AXIS":"6941.118","NORAD_CAT_ID":"53219","OBJECT_ID":"2022-084AG","REF_FRAME":"TEME","RCS_SIZE":"LARGE","LAUNCH_DATE":"2022-07-22","TLE_LINE1":"1 53219U 22084AG  23094.16252880  .00002925  00000-0  23216-3 0  9991","PERIOD":"95.919","COUNTRY_CODE":"US","ELEMENT_SET_NO":"999","OBJECT_TYPE":"PAYLOAD","SITE":"AFWTR","INCLINATION":"97.6543","CLASSIFICATION_TYPE":"U","MEAN_ELEMENT_THEORY":"SGP4","TLE_LINE2":"2 53219  97.6543 156.2897 0001513 104.6221 255.5171 15.01269400 38702","BSTAR":"0.00023216000000","TIME_SYSTEM":"UTC","GP_ID":"229466092","DECAY_DATE":null,"EPHEMERIS_TYPE":"0","REV_AT_EPOCH":"3870","MEAN_MOTION":"15.01269400","OBJECT_NAME":"STARLINK-4373","PERIAPSIS":"561.933","APOAPSIS":"564.033","RA_OF_ASC_NODE":"156.2897","MEAN_MOTION_DOT":"0.00002925","FILE":"3879974","ARG_OF_PERICENTER":"104.6221","MEAN_ANOMALY":"255.5171"},{"OBJECT_TYPE":"PAYLOAD","ELEMENT_SET_NO":"999","SITE":"AFWTR","COUNTRY_CODE":"US","PERIOD":"95.919","TLE_LINE1":"1 53220U 22084AH  23094.16808497  .00001619  00000-0  13060-3 0  9999","RCS_SIZE":"LARGE","REF_FRAME":"TEME","LAUNCH_DATE":"2022-07-22","OBJECT_ID":"2022-084AH","NORAD_CAT_ID":"53220","ECCENTRICITY":"0.00017290","CENTER_NAME":"EARTH","EPOCH":"2023-04-04T04:02:02.541408","SEMIMAJOR_AXIS":"6941.132","MEAN_MOTION_DDOT":"0.0000000000000","FILE":"3879974","MEAN_ANOMALY":"256.2996","ARG_OF_PERICENTER":"103.8421","MEAN_MOTION_DOT":"0.00001619","RA_OF_ASC_NODE":"156.2992","PERIAPSIS":"561.797","OBJECT_NAME":"STARLINK-4363","APOAPSIS":"564.197","MEAN_MOTION":"15.01264911","EPHEMERIS_TYPE":"0","REV_AT_EPOCH":"3922","DECAY_DATE":null,"BSTAR":"0.00013060000000","GP_ID":"229466842","TIME_SYSTEM":"UTC","CLASSIFICATION_TYPE":"U","INCLINATION":"97.6549","TLE_LINE2":"2 53220  97.6549 156.2992 0001729 103.8421 256.2996 15.01264911 39221","MEAN_ELEMENT_THEORY":"SGP4"},{"GP_ID":"229471327","TIME_SYSTEM":"UTC","BSTAR":"0.00020559000000","TLE_LINE2":"2 53221  97.6539 156.2875 0001676 102.7567 257.3845 15.01269123 38708","MEAN_ELEMENT_THEORY":"SGP4","INCLINATION":"97.6539","CLASSIFICATION_TYPE":"U","EPHEMERIS_TYPE":"0","REV_AT_EPOCH":"3870","DECAY_DATE":null,"APOAPSIS":"564.147","PERIAPSIS":"561.820","OBJECT_NAME":"STARLINK-4377","MEAN_MOTION":"15.01269123","MEAN_ANOMALY":"257.3845","ARG_OF_PERICENTER":"102.7567","FILE":"3880105","RA_OF_ASC_NODE":"156.2875","MEAN_MOTION_DOT":"0.00002583","NORAD_CAT_ID":"53221","MEAN_MOTION_DDOT":"0.0000000000000","SEMIMAJOR_AXIS":"6941.119","EPOCH":"2023-04-04T03:51:22.515264","CENTER_NAME":"EARTH","ECCENTRICITY":"0.00016760","OBJECT_ID":"2022-084AJ","TLE_LINE1":"1 53221U 22084AJ  23094.16067726  .00002583  00000-0  20559-3 0  9994","PERIOD":"95.919","LAUNCH_DATE":"2022-07-22","REF_FRAME":"TEME","RCS_SIZE":"LARGE","SITE":"AFWTR","ELEMENT_SET_NO":"999","OBJECT_TYPE":"PAYLOAD","COUNTRY_CODE":"US"},{"CLASSIFICATION_TYPE":"U","INCLINATION":"97.6541","TLE_LINE2":"2 53222  97.6541 156.2959 0001672 107.9167 252.2239 15.01263608 38707","MEAN_ELEMENT_THEORY":"SGP4","BSTAR":"0.00012879000000","TIME_SYSTEM":"UTC","GP_ID":"229465341","DECAY_DATE":null,"REV_AT_EPOCH":"3870","EPHEMERIS_TYPE":"0","MEAN_MOTION":"15.01263608","PERIAPSIS":"561.840","OBJECT_NAME":"STARLINK-4381","APOAPSIS":"564.161","RA_OF_ASC_NODE":"156.2959","MEAN_MOTION_DOT":"0.00001596","FILE":"3879974","ARG_OF_PERICENTER":"107.9167","MEAN_ANOMALY":"252.2239","EPOCH":"2023-04-04T03:59:22.379136","CENTER_NAME":"EARTH","ECCENTRICITY":"0.00016720","MEAN_MOTION_DDOT":"0.0000000000000","SEMIMAJOR_AXIS":"6941.136","NORAD_CAT_ID":"53222","OBJECT_ID":"2022-084AK","REF_FRAME":"TEME","RCS_SIZE":"LARGE","LAUNCH_DATE":"2022-07-22","TLE_LINE1":"1 53222U 22084AK  23094.16623124  .00001596  00000-0  12879-3 0  9994","PERIOD":"95.919","COUNTRY_CODE":"US","ELEMENT_SET_NO":"999","OBJECT_TYPE":"PAYLOAD","SITE":"AFWTR"},{"COUNTRY_CODE":"US","ELEMENT_SET_NO":"999","OBJECT_TYPE":"PAYLOAD","SITE":"AFWTR","REF_FRAME":"TEME","RCS_SIZE":"LARGE","LAUNCH_DATE":"2022-07-22","TLE_LINE1":"1 53223U 22084AL  23094.75869592  .00015863  00000-0  12365-2 0  9992","PERIOD":"95.919","OBJECT_ID":"2022-084AL","EPOCH":"2023-04-04T18:12:31.327488","CENTER_NAME":"EARTH","ECCENTRICITY":"0.00010580","MEAN_MOTION_DDOT":"0.0000000000000","SEMIMAJOR_AXIS":"6941.116","NORAD_CAT_ID":"53223","RA_OF_ASC_NODE":"156.8763","MEAN_MOTION_DOT":"0.00015863","FILE":"3880105","MEAN_ANOMALY":"214.6384","ARG_OF_PERICENTER":"145.4909","MEAN_MOTION":"15.01269901","PERIAPSIS":"562.247","OBJECT_NAME":"STARLINK-4354","APOAPSIS":"563.716","DECAY_DATE":null,"EPHEMERIS_TYPE":"0","REV_AT_EPOCH":"3879","INCLINATION":"97.6539","CLASSIFICATION_TYPE":"U","TLE_LINE2":"2 53223  97.6539 156.8763 0001058 145.4909 214.6384 15.01269901 38797","MEAN_ELEMENT_THEORY":"SGP4","BSTAR":"0.00123650000000","TIME_SYSTEM":"UTC","GP_ID":"229471710"},{"PERIOD":"95.919","TLE_LINE1":"1 53224U 22084AM  23094.16440111  .00024089  00000-0  18730-2 0  9992","LAUNCH_DATE":"2022-07-22","RCS_SIZE":"LARGE","REF_FRAME":"TEME","SITE":"AFWTR","OBJECT_TYPE":"PAYLOAD","ELEMENT_SET_NO":"999","COUNTRY_CODE":"US","NORAD_CAT_ID":"53224","SEMIMAJOR_AXIS":"6941.104","MEAN_MOTION_DDOT":"0.0000000000000","ECCENTRICITY":"0.00018230","CENTER_NAME":"EARTH","EPOCH":"2023-04-04T03:56:44.255904","OBJECT_ID":"2022-084AM","APOAPSIS":"564.234","OBJECT_NAME":"STARLINK-4356","PERIAPSIS":"561.704","MEAN_MOTION":"15.01273860","MEAN_ANOMALY":"252.9882","ARG_OF_PERICENTER":"107.1542","FILE":"3879974","MEAN_MOTION_DOT":"0.00024089","RA_OF_ASC_NODE":"156.2926","TIME_SYSTEM":"UTC","GP_ID":"229466343","BSTAR":"0.00187300000000","TLE_LINE2":"2 53224  97.6534 156.2926 0001823 107.1542 252.9882 15.01273860 38704","MEAN_ELEMENT_THEORY":"SGP4","CLASSIFICATION_TYPE":"U","INCLINATION":"97.6534","EPHEMERIS_TYPE":"0","REV_AT_EPOCH":"3870","DECAY_DATE":null},{"REV_AT_EPOCH":"3879","EPHEMERIS_TYPE":"0","DECAY_DATE":null,"BSTAR":"-0.00001647300000","TIME_SYSTEM":"UTC","GP_ID":"229471345","CLASSIFICATION_TYPE":"U","INCLINATION":"97.6547","TLE_LINE2":"2 53225  97.6547 156.8717 0001235 150.6899 209.4395 15.01259420 38799","MEAN_ELEMENT_THEORY":"SGP4","FILE":"3880104","MEAN_ANOMALY":"209.4395","ARG_OF_PERICENTER":"150.6899","MEAN_MOTION_DOT":"-0.00000271","RA_OF_ASC_NODE":"156.8717","OBJECT_NAME":"STARLINK-4358","PERIAPSIS":"562.156","APOAPSIS":"563.871","MEAN_MOTION":"15.01259420","OBJECT_ID":"2022-084AN","NORAD_CAT_ID":"53225","ECCENTRICITY":"0.00012350","EPOCH":"2023-04-04T18:07:11.388288","CENTER_NAME":"EARTH","SEMIMAJOR_AXIS":"6941.149","MEAN_MOTION_DDOT":"0.0000000000000","OBJECT_TYPE":"PAYLOAD","ELEMENT_SET_NO":"999","SITE":"AFWTR","COUNTRY_CODE":"US","PERIOD":"95.919","TLE_LINE1":"1 53225U 22084AN  23094.75499292 -.00000271  00000-0 -16473-4 0  9995","RCS_SIZE":"LARGE","REF_FRAME":"TEME","LAUNCH_DATE":"2022-07-22"}];
